[Satellite]
VERSION=1.1
NAME=HYLAS 2
NICKNAME=HYLAS 2
TLE1=1 38741U 12043B   17185.12969435  .00000148  00000-0  00000-0 0  9997
TLE2=2 38741   0.0241 296.2167 0002395 164.3654 259.4362  1.00272005 17986
